{"type": "FeatureCollection", "features": [ {"type": "Feature", "properties": {"norad_id": 37081, "name": "FENGYUN 1C DEB", "group": "fengyun-1c-debris", "lat": 24.847011686049164, "lon": -43.09603072007611, "alt_km": 1005.1879533251713, "timestamp": "2025-12-06T09:34:17.202676+00:00", "meta": {"OBJECT_NAME": "FENGYUN 1C DEB", "OBJECT_ID": "1999-025EFR", "EPOCH": "2025-12-04T16:05:13.028352", "MEAN_MOTION": 14.13719832, "ECCENTRICITY": 0.026348, "INCLINATION": 98.7084, "RA_OF_ASC_NODE": 131.1485, "ARG_OF_PERICENTER": 11.9086, "MEAN_ANOMALY": 348.8157, "EPHEMERIS_TYPE": 0, "CLASSIFICATION_TYPE": "U", "NORAD_CAT_ID": 37081, "ELEMENT_SET_NO": 999, "REV_AT_EPOCH": 58460, "BSTAR": 0.0070093, "MEAN_MOTION_DOT": 0.00018467, "MEAN_MOTION_DDOT": 0}, "tle": {"line1": "1 37081U 99025EFR 25338.67028968  .00018467  00000+0  70093-2 0  9997", "line2": "2 37081  98.7084 131.1485 0263480  11.9086 348.8157 14.13719832584606"}}, "geometry": {"type": "Point", "coordinates": [-43.09603072007611, 24.847011686049164]}}, {"type": "Feature", "properties": {"norad_id": 37400, "name": "FENGYUN 1C DEB", "group": "fengyun-1c-debris", "lat": -3.6577181298303336, "lon": 178.905172573855, "alt_km": 1297.1288699379093, "timestamp": "2025-12-06T09:34:17.202686+00:00", "meta": {"OBJECT_NAME": "FENGYUN 1C DEB", "OBJECT_ID": "1999-025EFS", "EPOCH": "2025-12-04T18:50:54.791232", "MEAN_MOTION": 13.63629843, "ECCENTRICITY": 0.0401547, "INCLINATION": 98.8382, "RA_OF_ASC_NODE": 176.8648, "ARG_OF_PERICENTER": 157.4535, "MEAN_ANOMALY": 204.4818, "EPHEMERIS_TYPE": 0, "CLASSIFICATION_TYPE": "U", "NORAD_CAT_ID": 37400, "ELEMENT_SET_NO": 999, "REV_AT_EPOCH": 80085, "BSTAR": 0.00081212736, "MEAN_MOTION_DOT": 1.073e-05, "MEAN_MOTION_DDOT": 0}, "tle": {"line1": "1 37400U 99025EFS 25338.78535638  .00001073  00000+0  81213-3 0  9993", "line2": "2 37400  98.8382 176.8648 0401547 157.4535 204.4818 13.63629843800858"}}, "geometry": {"type": "Point", "coordinates": [178.905172573855, -3.6577181298303336]}}, {"type": "Feature", "properties": {"norad_id": 37404, "name": "FENGYUN 1C DEB", "group": "fengyun-1c-debris", "lat": 14.951731249060837, "lon": -18.864906958062456, "alt_km": 817.7724014492615, "timestamp": "2025-12-06T09:34:17.202697+00:00", "meta": {"OBJECT_NAME": "FENGYUN 1C DEB", "OBJECT_ID": "1999-025EFW", "EPOCH": "2025-12-03T11:46:07.339008", "MEAN_MOTION": 14.31589733, "ECCENTRICITY": 0.00440614, "INCLINATION": 98.4524, "RA_OF_ASC_NODE": 340.5795, "ARG_OF_PERICENTER": 189.623, "MEAN_ANOMALY": 324.9221, "EPHEMERIS_TYPE": 0, "CLASSIFICATION_TYPE": "U", "NORAD_CAT_ID": 37404, "ELEMENT_SET_NO": 999, "REV_AT_EPOCH": 82608, "BSTAR": 0.00096855201, "MEAN_MOTION_DOT": 2.564e-05, "MEAN_MOTION_DDOT": 0}, "tle": {"line1": "1 37404U 99025EFW 25337.49036272  .00002564  00000+0  96855-3 0  9998", "line2": "2 37404  98.4524 340.5795 0044061 189.6230 324.9221 14.31589733826080"}}, "geometry": {"type": "Point", "coordinates": [-18.864906958062456, 14.951731249060837]}}, {"type": "Feature", "properties": {"norad_id": 37406, "name": "FENGYUN 1C DEB", "group": "fengyun-1c-debris", "lat": -17.35759342786875, "lon": 30.316563400632496, "alt_km": 876.7693982541741, "timestamp": "2025-12-06T09:34:17.202707+00:00", "meta": {"OBJECT_NAME": "FENGYUN 1C DEB", "OBJECT_ID": "1999-025EFY", "EPOCH": "2025-12-05T09:32:26.852064", "MEAN_MOTION": 14.04246973, "ECCENTRICITY": 0.01501858, "INCLINATION": 98.4433, "RA_OF_ASC_NODE": 212.0463, "ARG_OF_PERICENTER": 287.347, "MEAN_ANOMALY": 252.8818, "EPHEMERIS_TYPE": 0, "CLASSIFICATION_TYPE": "U", "NORAD_CAT_ID": 37406, "ELEMENT_SET_NO": 999, "REV_AT_EPOCH": 63129, "BSTAR": 0.0024216728, "MEAN_MOTION_DOT": 4.212e-05, "MEAN_MOTION_DDOT": 0}, "tle": {"line1": "1 37406U 99025EFY 25339.39753301  .00004212  00000+0  24217-2 0  9994", "line2": "2 37406  98.4433 212.0463 0150185 287.3470 252.8818 14.04246973631297"}}, "geometry": {"type": "Point", "coordinates": [30.316563400632496, -17.35759342786875]}}, {"type": "Feature", "properties": {"norad_id": 37415, "name": "FENGYUN 1C DEB", "group": "fengyun-1c-debris", "lat": -53.81472199790738, "lon": 101.31097053591216, "alt_km": 1127.3553929512618, "timestamp": "2025-12-06T09:34:17.202717+00:00", "meta": {"OBJECT_NAME": "FENGYUN 1C DEB", "OBJECT_ID": "1999-025EGH", "EPOCH": "2025-12-02T01:04:00.466176", "MEAN_MOTION": 13.52075679, "ECCENTRICITY": 0.02848718, "INCLINATION": 98.9818, "RA_OF_ASC_NODE": 84.8777, "ARG_OF_PERICENTER": 209.5506, "MEAN_ANOMALY": 148.9269, "EPHEMERIS_TYPE": 0, "CLASSIFICATION_TYPE": "U", "NORAD_CAT_ID": 37415, "ELEMENT_SET_NO": 999, "REV_AT_EPOCH": 62177, "BSTAR": 0.00059758334, "MEAN_MOTION_DOT": 4.68e-06, "MEAN_MOTION_DDOT": 0}, "tle": {"line1": "1 37415U 99025EGH 25336.04444984  .00000468  00000+0  59758-3 0  9995", "line2": "2 37415  98.9818  84.8777 0284871 209.5506 148.9269 13.52075679621770"}}, "geometry": {"type": "Point", "coordinates": [101.31097053591216, -53.81472199790738]}}, {"type": "Feature", "properties": {"norad_id": 37417, "name": "FENGYUN 1C DEB", "group": "fengyun-1c-debris", "lat": -78.91301492300634, "lon": 101.16131127323398, "alt_km": 820.9705287324759, "timestamp": "2025-12-06T09:34:17.202727+00:00", "meta": {"OBJECT_NAME": "FENGYUN 1C DEB", "OBJECT_ID": "1999-025EGK", "EPOCH": "2025-11-30T05:34:53.450976", "MEAN_MOTION": 14.07367073, "ECCENTRICITY": 0.00783952, "INCLINATION": 98.7959, "RA_OF_ASC_NODE": 327.3578, "ARG_OF_PERICENTER": 296.2961, "MEAN_ANOMALY": 63.017, "EPHEMERIS_TYPE": 0, "CLASSIFICATION_TYPE": "U", "NORAD_CAT_ID": 37417, "ELEMENT_SET_NO": 999, "REV_AT_EPOCH": 68174, "BSTAR": 0.00031485528, "MEAN_MOTION_DOT": 5e-06, "MEAN_MOTION_DDOT": 0}, "tle": {"line1": "1 37417U 99025EGK 25334.23256309  .00000500  00000+0  31486-3 0  9993", "line2": "2 37417  98.7959 327.3578 0078395 296.2961  63.0170 14.07367073681744"}}, "geometry": {"type": "Point", "coordinates": [101.16131127323398, -78.91301492300634]}}, {"type": "Feature", "properties": {"norad_id": 37418, "name": "FENGYUN 1C DEB", "group": "fengyun-1c-debris", "lat": -52.04815275766161, "lon": 43.47326011135794, "alt_km": 1760.5815814527286, "timestamp": "2025-12-06T09:34:17.202738+00:00", "meta": {"OBJECT_NAME": "FENGYUN 1C DEB", "OBJECT_ID": "1999-025EGL", "EPOCH": "2025-12-03T23:55:25.768992", "MEAN_MOTION": 11.95103309, "ECCENTRICITY": 0.10777187, "INCLINATION": 98.6131, "RA_OF_ASC_NODE": 233.0769, "ARG_OF_PERICENTER": 337.0843, "MEAN_ANOMALY": 18.5361, "EPHEMERIS_TYPE": 0, "CLASSIFICATION_TYPE": "U", "NORAD_CAT_ID": 37418, "ELEMENT_SET_NO": 999, "REV_AT_EPOCH": 49380, "BSTAR": 0.0055527554, "MEAN_MOTION_DOT": 2.288e-05, "MEAN_MOTION_DDOT": 0}, "tle": {"line1": "1 37418U 99025EGL 25337.99682603  .00002288  00000+0  55528-2 0  9997", "line2": "2 37418  98.6131 233.0769 1077718 337.0843  18.5361 11.95103309493802"}}, "geometry": {"type": "Point", "coordinates": [43.47326011135794, -52.04815275766161]}}, {"type": "Feature", "properties": {"norad_id": 37420, "name": "FENGYUN 1C DEB", "group": "fengyun-1c-debris", "lat": -43.63457197251741, "lon": -20.856892548171178, "alt_km": 853.3194930546324, "timestamp": "2025-12-06T09:34:17.202748+00:00", "meta": {"OBJECT_NAME": "FENGYUN 1C DEB", "OBJECT_ID": "1999-025EGN", "EPOCH": "2025-12-05T06:19:54.240672", "MEAN_MOTION": 13.9973043, "ECCENTRICITY": 0.00710252, "INCLINATION": 98.8605, "RA_OF_ASC_NODE": 329.4914, "ARG_OF_PERICENTER": 297.095, "MEAN_ANOMALY": 62.2981, "EPHEMERIS_TYPE": 0, "CLASSIFICATION_TYPE": "U", "NORAD_CAT_ID": 37420, "ELEMENT_SET_NO": 999, "REV_AT_EPOCH": 59660, "BSTAR": 0.00084782386, "MEAN_MOTION_DOT": 1.225e-05, "MEAN_MOTION_DDOT": 0}, "tle": {"line1": "1 37420U 99025EGN 25339.26382223  .00001225  00000+0  84782-3 0  9992", "line2": "2 37420  98.8605 329.4914 0071025 297.0950  62.2981 13.99730430596606"}}, "geometry": {"type": "Point", "coordinates": [-20.856892548171178, -43.63457197251741]}}, {"type": "Feature", "properties": {"norad_id": 37421, "name": "FENGYUN 1C DEB", "group": "fengyun-1c-debris", "lat": -28.663543215663083, "lon": 110.98905246361517, "alt_km": 1193.8751967310836, "timestamp": "2025-12-06T09:34:17.202758+00:00", "meta": {"OBJECT_NAME": "FENGYUN 1C DEB", "OBJECT_ID": "1999-025EGP", "EPOCH": "2025-12-05T14:39:53.220096", "MEAN_MOTION": 13.40516964, "ECCENTRICITY": 0.04089976, "INCLINATION": 98.8861, "RA_OF_ASC_NODE": 295.2012, "ARG_OF_PERICENTER": 103.3712, "MEAN_ANOMALY": 261.3346, "EPHEMERIS_TYPE": 0, "CLASSIFICATION_TYPE": "U", "NORAD_CAT_ID": 37421, "ELEMENT_SET_NO": 999, "REV_AT_EPOCH": 60850, "BSTAR": 0.00084668375, "MEAN_MOTION_DOT": 7.26e-06, "MEAN_MOTION_DDOT": 0}, "tle": {"line1": "1 37421U 99025EGP 25339.61103264  .00000726  00000+0  84668-3 0  9996", "line2": "2 37421  98.8861 295.2012 0408997 103.3712 261.3346 13.40516964608507"}}, "geometry": {"type": "Point", "coordinates": [110.98905246361517, -28.663543215663083]}}, {"type": "Feature", "properties": {"norad_id": 37423, "name": "FENGYUN 1C DEB", "group": "fengyun-1c-debris", "lat": 15.669245159960747, "lon": -146.699264696626, "alt_km": 833.815867362151, "timestamp": "2025-12-06T09:34:17.202769+00:00", "meta": {"OBJECT_NAME": "FENGYUN 1C DEB", "OBJECT_ID": "1999-025EGR", "EPOCH": "2025-12-02T09:15:11.081088", "MEAN_MOTION": 14.07508063, "ECCENTRICITY": 0.00491371, "INCLINATION": 98.7874, "RA_OF_ASC_NODE": 26.9108, "ARG_OF_PERICENTER": 188.2995, "MEAN_ANOMALY": 171.7367, "EPHEMERIS_TYPE": 0, "CLASSIFICATION_TYPE": "U", "NORAD_CAT_ID": 37423, "ELEMENT_SET_NO": 999, "REV_AT_EPOCH": 63464, "BSTAR": 0.00087659335, "MEAN_MOTION_DOT": 1.451e-05, "MEAN_MOTION_DDOT": 0}, "tle": {"line1": "1 37423U 99025EGR 25336.38554492  .00001451  00000+0  87659-3 0  9991", "line2": "2 37423  98.7874  26.9108 0049137 188.2995 171.7367 14.07508063634645"}}, "geometry": {"type": "Point", "coordinates": [-146.699264696626, 15.669245159960747]}}]}